NORAD_CAT_ID,OBJECT_NAME,OBJECT_TYPE,EPOCH,MEAN_MOTION,ECCENTRICITY,INCLINATION,RA_OF_ASC_NODE,ARG_OF_PERICENTER,MEAN_ANOMALY,BSTAR,MEAN_MOTION_DOT,MEAN_MOTION_DDOT,TLE_LINE0,TLE_LINE1,TLE_LINE2,SEMIMAJOR_AXIS,PERIOD,APOGEE,PERIGEE,DECAYED
55404.0,STARLINK-5607,PAYLOAD,2023-09-02 16:11:54,14.98327826,0.0002914,69.998,221.7092,270.4592,89.6233,4.3358e-07,-8.8e-07,0.0,0 STARLINK-5607,1 55404U 23014P   23245.67493823 -.00000088  00000-0  43358-6 0  9992,2 55404  69.9980 221.7092 0002914 270.4592  89.6233 14.98327826 33455,6950.2,96.107,574.09,570.039,0.0
55404.0,STARLINK-5607,PAYLOAD,2023-09-03 08:13:15,14.9832994,0.0002951,69.9999,220.0259,270.0732,90.0089,2.4857e-05,2.04e-06,0.0,0 STARLINK-5607,1 55404U 23014P   23246.34253665  .00000204  00000-0  24857-4 0  9995,2 55404  69.9999 220.0259 0002951 270.0732  90.0089 14.98329940 34494,6950.193,96.107,574.109,570.007,0.0
55404.0,STARLINK-5607,PAYLOAD,2023-09-03 16:13:55,14.98327129,0.0002921,70.0,219.1841,270.308,89.7744,-2.0537e-05,-3.38e-06,0.0,0 STARLINK-5607,1 55404U 23014P   23246.67633994 -.00000338  00000-0 -20537-4 0  9999,2 55404  70.0000 219.1841 0002921 270.3080  89.7744 14.98327129 33604,6950.202,96.107,574.097,570.037,0.0
55404.0,STARLINK-5607,PAYLOAD,2023-09-04 06:39:08,14.98325609,0.0002971,69.9997,217.6697,271.2878,88.7941,-2.5105e-05,-3.92e-06,0.0,0 STARLINK-5607,1 55404U 23014P   23247.27718199 -.00000392  00000-0 -25105-4 0  9993,2 55404  69.9997 217.6697 0002971 271.2878  88.7941 14.98325609 34631,6950.206,96.107,574.136,570.007,0.0
55404.0,STARLINK-5607,PAYLOAD,2023-09-04 21:04:20,14.98329908,0.0003063,69.9998,216.1549,270.7004,89.3805,4.1255e-05,3.99e-06,0.0,0 STARLINK-5607,1 55404U 23014P   23247.87801777  .00000399  00000-0  41255-4 0  9993,2 55404  69.9998 216.1549 0003063 270.7004  89.3805 14.98329908 33787,6950.193,96.107,574.187,569.929,0.0
55404.0,STARLINK-5607,PAYLOAD,2023-09-05 05:05:00,14.98333884,0.0003085,69.9998,215.3133,270.9782,89.1024,5.0668e-05,5.12e-06,0.0,0 STARLINK-5607,1 55404U 23014P   23248.21181464  .00000512  00000-0  50668-4 0  9991,2 55404  69.9998 215.3133 0003085 270.9782  89.1024 14.98333884 34775,6950.181,96.107,574.19,569.902,0.0
55404.0,STARLINK-5607,PAYLOAD,2023-09-05 08:17:16,14.98335999,0.0003056,69.9999,214.9766,271.4723,88.6086,7.0865e-05,7.53e-06,0.0,0 STARLINK-5607,1 55404U 23014P   23248.34533246  .00000753  00000-0  70865-4 0  9992,2 55404  69.9999 214.9766 0003056 271.4723  88.6086 14.98335999 33851,6950.174,96.107,574.163,569.915,0.0
55404.0,STARLINK-5607,PAYLOAD,2023-09-06 21:08:22,14.98329681,0.000262,70.0015,211.1071,264.2163,95.8697,-1.4544e-05,-2.66e-06,0.0,0 STARLINK-5607,1 55404U 23014P   23249.88081860 -.00000266  00000-0 -14544-4 0  9995,2 55404  70.0015 211.1071 0002620 264.2163  95.8697 14.98329681 35025,6950.194,96.107,573.88,570.238,0.0
55404.0,STARLINK-5607,PAYLOAD,2023-09-07 06:45:11,14.98329766,0.0002766,70.0011,210.0973,266.6627,93.4216,-2.879e-05,-4.36e-06,0.0,0 STARLINK-5607,1 55404U 23014P   23250.28137871 -.00000436  00000-0 -28790-4 0  9992,2 55404  70.0011 210.0973 0002766 266.6627  93.4216 14.98329766 35083,6950.194,96.107,573.981,570.136,0.0
55404.0,STARLINK-5607,PAYLOAD,2023-09-07 21:10:23,14.98327895,0.0002943,70.0006,208.5809,271.8383,88.2439,-1.3562e-05,-2.55e-06,0.0,0 STARLINK-5607,1 55404U 23014P   23250.88221963 -.00000255  00000-0 -13562-4 0  9994,2 55404  70.0006 208.5809 0002943 271.8383  88.2439 14.98327895 35171,6950.199,96.107,574.11,570.019,0.0
55404.0,STARLINK-5607,PAYLOAD,2023-09-08 03:34:55,14.9833095,0.000284,70.0007,207.908,266.635,93.4484,1.5221e-05,8.9e-07,0.0,0 STARLINK-5607,1 55404U 23014P   23251.14925663  .00000089  00000-0  15221-4 0  9999,2 55404  70.0007 207.9080 0002840 266.6350  93.4484 14.98330950 34272,6950.19,96.107,574.029,570.081,0.0
55404.0,STARLINK-5607,PAYLOAD,2023-09-08 06:47:11,14.98327872,0.0002481,70.0008,207.57,264.6705,95.4171,7.825e-05,8.41e-06,0.0,0 STARLINK-5607,1 55404U 23014P   23251.28277559  .00000841  00000-0  78250-4 0  9995,2 55404  70.0008 207.5700 0002481 264.6705  95.4171 14.98327872 35232,6950.199,96.107,573.789,570.34,0.0
55404.0,STARLINK-5607,PAYLOAD,2023-09-09 06:49:12,14.98332797,0.000287,70.001,205.0465,266.979,93.104,3.527e-05,3.28e-06,0.0,0 STARLINK-5607,1 55404U 23014P   23252.28417422  .00000328  00000-0  35270-4 0  9996,2 55404  70.0010 205.0465 0002870 266.9790  93.1040 14.98332797 34441,6950.184,96.107,574.044,570.055,0.0
55404.0,STARLINK-5607,PAYLOAD,2023-09-10 08:27:21,14.98332809,0.0003049,70.001,202.3529,269.9533,90.1277,6.7146e-05,7.08e-06,0.0,0 STARLINK-5607,1 55404U 23014P   23253.35233228  .00000708  00000-0  67146-4 0  9994,2 55404  70.0010 202.3529 0003049 269.9533  90.1277 14.98332809 34600,6950.184,96.107,574.168,569.93,0.0
55404.0,STARLINK-5607,PAYLOAD,2023-09-11 02:04:50,14.98324639,0.0002599,70.0013,200.5023,266.2798,93.8064,1.1869e-05,4.9e-07,0.0,0 STARLINK-5607,1 55404U 23014P   23254.08669871  .00000049  00000-0  11869-4 0  9991,2 55404  70.0013 200.5023 0002599 266.2798  93.8064 14.98324639 34712,6950.209,96.107,573.881,570.268,0.0
55404.0,STARLINK-5607,PAYLOAD,2023-09-11 06:53:14,14.98362719,0.0002201,70.0019,199.9978,260.661,99.43,-0.00060015,-7.252e-05,0.0,0 STARLINK-5607,1 55404U 23014P   23254.28696903 -.00007252  00000-0 -60015-3 0  9990,2 55404  70.0019 199.9978 0002201 260.6610  99.4300 14.98362719 34748,6950.092,96.105,573.486,570.427,0.0
55404.0,STARLINK-5607,PAYLOAD,2023-09-11 13:17:46,14.98331285,0.0002754,70.0017,199.3243,272.6291,87.4553,-1.6578e-05,-2.91e-06,0.0,0 STARLINK-5607,1 55404U 23014P   23254.55401548 -.00000291  00000-0 -16578-4 0  9991,2 55404  70.0017 199.3243 0002754 272.6291  87.4553 14.98331285 35726,6950.189,96.107,573.968,570.14,0.0
55404.0,STARLINK-5607,PAYLOAD,2023-09-12 05:19:07,14.9833392,0.0002519,70.0022,197.6417,261.8185,98.2688,6.3619e-05,6.66e-06,0.0,0 STARLINK-5607,1 55404U 23014P   23255.22160986  .00000666  00000-0  63619-4 0  9996,2 55404  70.0022 197.6417 0002519 261.8185  98.2688 14.98333920 34880,6950.181,96.107,573.797,570.295,0.0
55404.0,STARLINK-5607,PAYLOAD,2023-09-12 21:20:27,14.98330941,0.0002512,70.0024,195.9593,258.5716,101.5161,4.57e-05,4.52e-06,0.0,0 STARLINK-5607,1 55404U 23014P   23255.88921036  .00000452  00000-0  45700-4 0  9993,2 55404  70.0024 195.9593 0002512 258.5716 101.5161 14.98330941 35924,6950.19,96.107,573.801,570.309,0.0
55404.0,STARLINK-5607,PAYLOAD,2023-09-13 05:21:07,14.98337778,0.0002836,70.0014,195.1165,266.9551,93.1283,9.2806e-05,1.015e-05,0.0,0 STARLINK-5607,1 55404U 23014P   23256.22300416  .00001015  00000-0  92806-4 0  9990,2 55404  70.0014 195.1165 0002836 266.9551  93.1283 14.98337778 35037,6950.169,96.107,574.005,570.063,0.0
55404.0,STARLINK-5607,PAYLOAD,2023-09-13 21:22:29,14.98325418,0.0002766,70.0019,193.4338,266.6625,93.4217,-0.00011714,-1.49e-05,0.0,0 STARLINK-5607,1 55404U 23014P   23256.89061810 -.00001490  00000-0 -11714-3 0  9992,2 55404  70.0019 193.4338 0002766 266.6625  93.4217 14.98325418 36079,6950.207,96.107,573.994,570.15,0.0
55404.0,STARLINK-5607,PAYLOAD,2023-09-14 02:10:53,14.98321995,0.0002988,70.0007,192.9274,269.7867,90.295,-0.00014688,-1.845e-05,0.0,0 STARLINK-5607,1 55404U 23014P   23257.09090162 -.00001845  00000-0 -14688-3 0  9994,2 55404  70.0007 192.9274 0002988 269.7867  90.2950 14.98321995 35161,6950.218,96.108,574.159,570.006,0.0
55404.0,STARLINK-5607,PAYLOAD,2023-09-14 05:23:09,14.98323308,0.0002846,70.0013,192.5909,268.8762,91.2071,-0.0001317,-1.664e-05,0.0,0 STARLINK-5607,1 55404U 23014P   23257.22442091 -.00001664  00000-0 -13170-3 0  9995,2 55404  70.0013 192.5909 0002846 268.8762  91.2071 14.98323308 36128,6950.214,96.107,574.057,570.101,0.0
55404.0,STARLINK-5607,PAYLOAD,2023-09-14 21:24:30,14.98329753,0.000309,70.0006,190.9079,269.4405,90.64,-3.8717e-05,-5.55e-06,0.0,0 STARLINK-5607,1 55404U 23014P   23257.89201573 -.00000555  00000-0 -38717-4 0  9999,2 55404  70.0006 190.9079 0003090 269.4405  90.6400 14.98329753 36223,6950.194,96.107,574.206,569.911,0.0
55404.0,STARLINK-5607,PAYLOAD,2023-09-15 02:12:54,14.9833357,0.0003025,70.0007,190.4027,268.4313,91.65,1.1129e-05,4e-07,0.0,0 STARLINK-5607,1 55404U 23014P   23258.09229180  .00000040  00000-0  11129-4 0  9991,2 55404  70.0007 190.4027 0003025 268.4313  91.6500 14.98333570 35310,6950.182,96.107,574.149,569.944,0.0
55404.0,STARLINK-5607,PAYLOAD,2023-09-15 05:25:09,14.9833699,0.0002893,70.001,190.0662,267.0873,92.9955,6.3946e-05,6.7e-06,0.0,0 STARLINK-5607,1 55404U 23014P   23258.22580797  .00000670  00000-0  63946-4 0  9993,2 55404  70.0010 190.0662 0002893 267.0873  92.9955 14.98336990 36276,6950.171,96.107,574.047,570.026,0.0
55404.0,STARLINK-5607,PAYLOAD,2023-09-16 02:14:55,14.98327234,0.0002776,70.0017,187.8799,268.3767,91.7074,0.00012382,1.385e-05,0.0,0 STARLINK-5607,1 55404U 23014P   23259.09369215  .00001385  00000-0  12382-3 0  9990,2 55404  70.0017 187.8799 0002776 268.3767  91.7074 14.98327234 35464,6950.201,96.107,573.996,570.137,0.0
55404.0,STARLINK-5607,PAYLOAD,2023-09-16 05:27:11,14.98328127,0.0002779,70.0017,187.5432,269.0301,91.0539,0.00013077,1.468e-05,0.0,0 STARLINK-5607,1 55404U 23014P   23259.22721118  .00001468  00000-0  13077-3 0  9993,2 55404  70.0017 187.5432 0002779 269.0301  91.0539 14.98328127 36428,6950.199,96.107,573.995,570.132,0.0
55404.0,STARLINK-5607,PAYLOAD,2023-09-17 02:16:56,14.98333485,0.0002604,70.0023,185.3559,263.8916,96.1947,-3.3429e-05,-4.92e-06,0.0,0 STARLINK-5607,1 55404U 23014P   23260.09509277 -.00000492  00000-0 -33429-4 0  9992,2 55404  70.0023 185.3559 0002604 263.8916  96.1947 14.98333485 35614,6950.182,96.107,573.857,570.237,0.0
55404.0,STARLINK-5607,PAYLOAD,2023-09-17 05:29:12,14.98332936,0.0002721,70.0022,185.0194,268.362,91.7228,-1.2088e-05,-2.37e-06,0.0,0 STARLINK-5607,1 55404U 23014P   23260.22861218 -.00000237  00000-0 -12088-4 0  9998,2 55404  70.0022 185.0194 0002721 268.3620  91.7228 14.98332936 36576,6950.184,96.107,573.94,570.158,0.0
